[
  {
    "id": 1,
    "name": "Dhaka",
    "name_bn": "ঢাকা",
    "districts": [
      {
        "id": 1,
        "division_name": "dhaka",
        "name": "Dhaka",
        "name_bn": "ঢাকা",
        "subdistricts": [
          {
            "id": 801,
            "division_name": "dhaka",
            "district_name": "dhaka",
            "name": "Dhaka North City Corporation",
            "name_bn": "ঢাকা উত্তর সিটি কর্পোরেশন"
          },
          {
            "id": 802,
            "division_name": "dhaka",
            "district_name": "dhaka",
            "name": "Dhaka South City Corporation",
            "name_bn": "ঢাকা দক্ষিণ সিটি কর্পোরেশন"
          },
          {
            "id": 1,
            "division_name": "dhaka",
            "district_name": "dhaka",
            "name": "Dhamrai",
            "name_bn": "ধামরাই"
          },
          {
            "id": 2,
            "division_name": "dhaka",
            "district_name": "dhaka",
            "name": "Dohar",
            "name_bn": "দোহার"
          },
          {
            "id": 3,
            "division_name": "dhaka",
            "district_name": "dhaka",
            "name": "Keraniganj",
            "name_bn": "কেরানীগঞ্জ"
          },
          {
            "id": 4,
            "division_name": "dhaka",
            "district_name": "dhaka",
            "name": "Nawabganj",
            "name_bn": "নবাবগঞ্জ"
          },
          {
            "id": 5,
            "division_name": "dhaka",
            "district_name": "dhaka",
            "name": "Savar",
            "name_bn": "সাভার"
          }
        ]
      },
      {
        "id": 2,
        "division_name": "dhaka",
        "name": "Gazipur",
        "name_bn": "গাজীপুর",
        "subdistricts": [
          {
            "id": 6,
            "division_name": "dhaka",
            "district_name": "gazipur",
            "name": "Gazipur Sadar",
            "name_bn": "গাজীপুর সদর"
          },
          {
            "id": 7,
            "division_name": "dhaka",
            "district_name": "gazipur",
            "name": "Kaliakair",
            "name_bn": "কালিয়াকৈর"
          },
          {
            "id": 8,
            "division_name": "dhaka",
            "district_name": "gazipur",
            "name": "Kaliganj",
            "name_bn": "কালীগঞ্জ"
          },
          {
            "id": 9,
            "division_name": "dhaka",
            "district_name": "gazipur",
            "name": "Kapasia",
            "name_bn": "কাপাসিয়া"
          },
          {
            "id": 10,
            "division_name": "dhaka",
            "district_name": "gazipur",
            "name": "Sreepur",
            "name_bn": "শ্রীপুর"
          }
        ]
      },
      {
        "id": 3,
        "division_name": "dhaka",
        "name": "Narayanganj",
        "name_bn": "নারায়ণগঞ্জ",
        "subdistricts": [
          {
            "id": 11,
            "division_name": "dhaka",
            "district_name": "narayanganj",
            "name": "Narayanganj Sadar",
            "name_bn": "নারায়ণগঞ্জ সদর"
          },
          {
            "id": 12,
            "division_name": "dhaka",
            "district_name": "narayanganj",
            "name": "Araihazar",
            "name_bn": "আড়াইহাজার"
          },
          {
            "id": 13,
            "division_name": "dhaka",
            "district_name": "narayanganj",
            "name": "Bandar",
            "name_bn": "বন্দর"
          },
          {
            "id": 14,
            "division_name": "dhaka",
            "district_name": "narayanganj",
            "name": "Rupganj",
            "name_bn": "রূপগঞ্জ"
          },
          {
            "id": 15,
            "division_name": "dhaka",
            "district_name": "narayanganj",
            "name": "Sonargaon",
            "name_bn": "সোনারগাঁও"
          }
        ]
      },
      {
        "id": 4,
        "division_name": "dhaka",
        "name": "Narsingdi",
        "name_bn": "নরসিংদী",
        "subdistricts": [
          {
            "id": 16,
            "division_name": "dhaka",
            "district_name": "narsingdi",
            "name": "Narsingdi Sadar",
            "name_bn": "নরসিংদী সদর"
          },
          {
            "id": 17,
            "division_name": "dhaka",
            "district_name": "narsingdi",
            "name": "Belabo",
            "name_bn": "বেলাবো"
          },
          {
            "id": 18,
            "division_name": "dhaka",
            "district_name": "narsingdi",
            "name": "Monohardi",
            "name_bn": "মনোহরদী"
          },
          {
            "id": 19,
            "division_name": "dhaka",
            "district_name": "narsingdi",
            "name": "Palash",
            "name_bn": "পলাশ"
          },
          {
            "id": 20,
            "division_name": "dhaka",
            "district_name": "narsingdi",
            "name": "Raipura",
            "name_bn": "রায়পুরা"
          },
          {
            "id": 21,
            "division_name": "dhaka",
            "district_name": "narsingdi",
            "name": "Shibpur",
            "name_bn": "শিবপুর"
          }
        ]
      },
      {
        "id": 5,
        "division_name": "dhaka",
        "name": "Tangail",
        "name_bn": "টাঙ্গাইল",
        "subdistricts": [
          {
            "id": 22,
            "division_name": "dhaka",
            "district_name": "tangail",
            "name": "Tangail Sadar",
            "name_bn": "টাঙ্গাইল সদর"
          },
          {
            "id": 23,
            "division_name": "dhaka",
            "district_name": "tangail",
            "name": "Basail",
            "name_bn": "বাসাইল"
          },
          {
            "id": 24,
            "division_name": "dhaka",
            "district_name": "tangail",
            "name": "Bhuapur",
            "name_bn": "ভুয়াপুর"
          },
          {
            "id": 25,
            "division_name": "dhaka",
            "district_name": "tangail",
            "name": "Delduar",
            "name_bn": "দেলদুয়ার"
          },
          {
            "id": 26,
            "division_name": "dhaka",
            "district_name": "tangail",
            "name": "Dhanbari",
            "name_bn": "ধনবাড়ী"
          },
          {
            "id": 27,
            "division_name": "dhaka",
            "district_name": "tangail",
            "name": "Ghatail",
            "name_bn": "ঘাটাইল"
          },
          {
            "id": 28,
            "division_name": "dhaka",
            "district_name": "tangail",
            "name": "Gopalpur",
            "name_bn": "গোপালপুর"
          },
          {
            "id": 29,
            "division_name": "dhaka",
            "district_name": "tangail",
            "name": "Kalihati",
            "name_bn": "কালিহাতি"
          },
          {
            "id": 30,
            "division_name": "dhaka",
            "district_name": "tangail",
            "name": "Madhupur",
            "name_bn": "মধুপুর"
          },
          {
            "id": 31,
            "division_name": "dhaka",
            "district_name": "tangail",
            "name": "Mirzapur",
            "name_bn": "মির্জাপুর"
          },
          {
            "id": 32,
            "division_name": "dhaka",
            "district_name": "tangail",
            "name": "Nagarpur",
            "name_bn": "নাগরপুর"
          },
          {
            "id": 33,
            "division_name": "dhaka",
            "district_name": "tangail",
            "name": "Sakhipur",
            "name_bn": "সখিপুর"
          }
        ]
      },
      {
        "id": 6,
        "division_name": "dhaka",
        "name": "Kishoreganj",
        "name_bn": "কিশোরগঞ্জ",
        "subdistricts": [
          {
            "id": 34,
            "division_name": "dhaka",
            "district_name": "kishoreganj",
            "name": "Kishoreganj Sadar",
            "name_bn": "কিশোরগঞ্জ সদর"
          },
          {
            "id": 35,
            "division_name": "dhaka",
            "district_name": "kishoreganj",
            "name": "Astagram",
            "name_bn": "আস্তাগ্রাম"
          },
          {
            "id": 36,
            "division_name": "dhaka",
            "district_name": "kishoreganj",
            "name": "Bajitpur",
            "name_bn": "বাজিতপুর"
          },
          {
            "id": 37,
            "division_name": "dhaka",
            "district_name": "kishoreganj",
            "name": "Bhairab",
            "name_bn": "ভৈরব"
          },
          {
            "id": 38,
            "division_name": "dhaka",
            "district_name": "kishoreganj",
            "name": "Hossainpur",
            "name_bn": "হোসেনপুর"
          },
          {
            "id": 39,
            "division_name": "dhaka",
            "district_name": "kishoreganj",
            "name": "Itna",
            "name_bn": "ইটনা"
          },
          {
            "id": 40,
            "division_name": "dhaka",
            "district_name": "kishoreganj",
            "name": "Karimganj",
            "name_bn": "করিমগঞ্জ"
          },
          {
            "id": 41,
            "division_name": "dhaka",
            "district_name": "kishoreganj",
            "name": "Katiadi",
            "name_bn": "কটিয়াদি"
          },
          {
            "id": 42,
            "division_name": "dhaka",
            "district_name": "kishoreganj",
            "name": "Kuliarchar",
            "name_bn": "কুলিয়ারচর"
          },
          {
            "id": 43,
            "division_name": "dhaka",
            "district_name": "kishoreganj",
            "name": "Mithamain",
            "name_bn": "মিঠামাইন"
          },
          {
            "id": 44,
            "division_name": "dhaka",
            "district_name": "kishoreganj",
            "name": "Nikli",
            "name_bn": "নিকলী"
          },
          {
            "id": 45,
            "division_name": "dhaka",
            "district_name": "kishoreganj",
            "name": "Pakundia",
            "name_bn": "পাকুন্দিয়া"
          },
          {
            "id": 46,
            "division_name": "dhaka",
            "district_name": "kishoreganj",
            "name": "Tarail",
            "name_bn": "তাড়াইল"
          }
        ]
      },
      {
        "id": 7,
        "division_name": "dhaka",
        "name": "Manikganj",
        "name_bn": "মানিকগঞ্জ",
        "subdistricts": [
          {
            "id": 47,
            "division_name": "dhaka",
            "district_name": "manikganj",
            "name": "Manikganj Sadar",
            "name_bn": "মানিকগঞ্জ সদর"
          },
          {
            "id": 48,
            "division_name": "dhaka",
            "district_name": "manikganj",
            "name": "Daulatpur",
            "name_bn": "দৌলতপুর"
          },
          {
            "id": 49,
            "division_name": "dhaka",
            "district_name": "manikganj",
            "name": "Ghior",
            "name_bn": "ঘিওর"
          },
          {
            "id": 50,
            "division_name": "dhaka",
            "district_name": "manikganj",
            "name": "Harirampur",
            "name_bn": "হরিরামপুর"
          },
          {
            "id": 51,
            "division_name": "dhaka",
            "district_name": "manikganj",
            "name": "Saturia",
            "name_bn": "সাটুরিয়া"
          },
          {
            "id": 52,
            "division_name": "dhaka",
            "district_name": "manikganj",
            "name": "Shibalaya",
            "name_bn": "শিবালয়"
          },
          {
            "id": 53,
            "division_name": "dhaka",
            "district_name": "manikganj",
            "name": "Singair",
            "name_bn": "সিংগাইর"
          }
        ]
      },
      {
        "id": 8,
        "division_name": "dhaka",
        "name": "Munshiganj",
        "name_bn": "মুন্সিগঞ্জ",
        "subdistricts": [
          {
            "id": 54,
            "division_name": "dhaka",
            "district_name": "munshiganj",
            "name": "Munshiganj Sadar",
            "name_bn": "মুন্সিগঞ্জ সদর"
          },
          {
            "id": 55,
            "division_name": "dhaka",
            "district_name": "munshiganj",
            "name": "Gazaria",
            "name_bn": "গজারিয়া"
          },
          {
            "id": 56,
            "division_name": "dhaka",
            "district_name": "munshiganj",
            "name": "Lohajang",
            "name_bn": "লোহাজং"
          },
          {
            "id": 57,
            "division_name": "dhaka",
            "district_name": "munshiganj",
            "name": "Sirajdikhan",
            "name_bn": "সিরাজদিখান"
          },
          {
            "id": 58,
            "division_name": "dhaka",
            "district_name": "munshiganj",
            "name": "Sreenagar",
            "name_bn": "শ্রীনগর"
          },
          {
            "id": 59,
            "division_name": "dhaka",
            "district_name": "munshiganj",
            "name": "Tongibari",
            "name_bn": "টংগিবাড়ী"
          }
        ]
      },
      {
        "id": 9,
        "division_name": "dhaka",
        "name": "Rajbari",
        "name_bn": "রাজবাড়ী",
        "subdistricts": [
          {
            "id": 60,
            "division_name": "dhaka",
            "district_name": "rajbari",
            "name": "Rajbari Sadar",
            "name_bn": "রাজবাড়ী সদর"
          },
          {
            "id": 61,
            "division_name": "dhaka",
            "district_name": "rajbari",
            "name": "Baliakandi",
            "name_bn": "বালিয়াকান্দি"
          },
          {
            "id": 62,
            "division_name": "dhaka",
            "district_name": "rajbari",
            "name": "Goalandaghat",
            "name_bn": "গোয়ালন্দঘাট"
          },
          {
            "id": 63,
            "division_name": "dhaka",
            "district_name": "rajbari",
            "name": "Pangsha",
            "name_bn": "পাংশা"
          },
          {
            "id": 64,
            "division_name": "dhaka",
            "district_name": "rajbari",
            "name": "Kalukhali",
            "name_bn": "কালুখালী"
          }
        ]
      },
      {
        "id": 10,
        "division_name": "dhaka",
        "name": "Shariatpur",
        "name_bn": "শরীয়তপুর",
        "subdistricts": [
          {
            "id": 65,
            "division_name": "dhaka",
            "district_name": "shariatpur",
            "name": "Shariatpur Sadar",
            "name_bn": "শরিয়তপুর সদর"
          },
          {
            "id": 66,
            "division_name": "dhaka",
            "district_name": "shariatpur",
            "name": "Bhedarganj",
            "name_bn": "ভেদরগঞ্জ"
          },
          {
            "id": 67,
            "division_name": "dhaka",
            "district_name": "shariatpur",
            "name": "Damudya",
            "name_bn": "ডামুড্যা"
          },
          {
            "id": 68,
            "division_name": "dhaka",
            "district_name": "shariatpur",
            "name": "Gosairhat",
            "name_bn": "গোসাইরহাট"
          },
          {
            "id": 69,
            "division_name": "dhaka",
            "district_name": "shariatpur",
            "name": "Jajira",
            "name_bn": "জাজিরা"
          },
          {
            "id": 70,
            "division_name": "dhaka",
            "district_name": "shariatpur",
            "name": "Naria",
            "name_bn": "নড়িয়া"
          }
        ]
      },
      {
        "id": 11,
        "division_name": "dhaka",
        "name": "Faridpur",
        "name_bn": "ফরিদপুর",
        "subdistricts": [
          {
            "id": 71,
            "division_name": "dhaka",
            "district_name": "faridpur",
            "name": "Faridpur Sadar",
            "name_bn": "ফরিদপুর সদর"
          },
          {
            "id": 72,
            "division_name": "dhaka",
            "district_name": "faridpur",
            "name": "Alfadanga",
            "name_bn": "আলফাডাঙ্গা"
          },
          {
            "id": 73,
            "division_name": "dhaka",
            "district_name": "faridpur",
            "name": "Bhanga",
            "name_bn": "ভাঙ্গা"
          },
          {
            "id": 74,
            "division_name": "dhaka",
            "district_name": "faridpur",
            "name": "Boalmari",
            "name_bn": "বোয়ালমারী"
          },
          {
            "id": 75,
            "division_name": "dhaka",
            "district_name": "faridpur",
            "name": "Charbhadrasan",
            "name_bn": "চরভদ্রাসন"
          },
          {
            "id": 76,
            "division_name": "dhaka",
            "district_name": "faridpur",
            "name": "Madhukhali",
            "name_bn": "মধুখালী"
          },
          {
            "id": 77,
            "division_name": "dhaka",
            "district_name": "faridpur",
            "name": "Nagarkanda",
            "name_bn": "নগরকান্দা"
          },
          {
            "id": 78,
            "division_name": "dhaka",
            "district_name": "faridpur",
            "name": "Sadarpur",
            "name_bn": "সদরপুর"
          },
          {
            "id": 79,
            "division_name": "dhaka",
            "district_name": "faridpur",
            "name": "Saltha",
            "name_bn": "সালথা"
          }
        ]
      },
      {
        "id": 12,
        "division_name": "dhaka",
        "name": "Madaripur",
        "name_bn": "মাদারীপুর",
        "subdistricts": [
          {
            "id": 80,
            "division_name": "dhaka",
            "district_name": "madaripur",
            "name": "Madaripur Sadar",
            "name_bn": "মাদারীপুর সদর"
          },
          {
            "id": 81,
            "division_name": "dhaka",
            "district_name": "madaripur",
            "name": "Dasar",
            "name_bn": "ডাসার"
          },
          {
            "id": 82,
            "division_name": "dhaka",
            "district_name": "madaripur",
            "name": "Kalkini",
            "name_bn": "কালকিনি"
          },
          {
            "id": 83,
            "division_name": "dhaka",
            "district_name": "madaripur",
            "name": "Rajoir",
            "name_bn": "রাজৈর"
          },
          {
            "id": 84,
            "division_name": "dhaka",
            "district_name": "madaripur",
            "name": "Shibchar",
            "name_bn": "শিবচর"
          }
        ]
      },
      {
        "id": 13,
        "division_name": "dhaka",
        "name": "Gopalganj",
        "name_bn": "গোপালগঞ্জ",
        "subdistricts": [
          {
            "id": 85,
            "division_name": "dhaka",
            "district_name": "gopalganj",
            "name": "Gopalganj Sadar",
            "name_bn": "গোপালগঞ্জ সদর"
          },
          {
            "id": 86,
            "division_name": "dhaka",
            "district_name": "gopalganj",
            "name": "Kashiani",
            "name_bn": "কাশিয়ানী"
          },
          {
            "id": 87,
            "division_name": "dhaka",
            "district_name": "gopalganj",
            "name": "Kotalipara",
            "name_bn": "কোটালীপাড়া"
          },
          {
            "id": 88,
            "division_name": "dhaka",
            "district_name": "gopalganj",
            "name": "Muksudpur",
            "name_bn": "মুকসুদপুর"
          },
          {
            "id": 89,
            "division_name": "dhaka",
            "district_name": "gopalganj",
            "name": "Tungipara",
            "name_bn": "টুংগিপাড়া"
          }
        ]
      }
    ]
  },
  {
    "id": 2,
    "name": "Chittagong",
    "name_bn": "চট্টগ্রাম",
    "districts": [
      {
        "id": 14,
        "division_name": "chittagong",
        "name": "Chittagong",
        "name_bn": "চট্টগ্রাম",
        "subdistricts": [
          {
            "id": 803,
            "division_name": "chittagong",
            "district_name": "chittagong",
            "name": "Cittagong City Corporation",
            "name_bn": "চট্টগ্রাম সিটি কর্পোরেশন"
          },
          {
            "id": 90,
            "division_name": "chittagong",
            "district_name": "chittagong",
            "name": "Anwara",
            "name_bn": "আনোয়ারা"
          },
          {
            "id": 91,
            "division_name": "chittagong",
            "district_name": "chittagong",
            "name": "Banshkhali",
            "name_bn": "বাঁশখালী"
          },
          {
            "id": 92,
            "division_name": "chittagong",
            "district_name": "chittagong",
            "name": "Boalkhali",
            "name_bn": "বোয়ালখালী"
          },
          {
            "id": 93,
            "division_name": "chittagong",
            "district_name": "chittagong",
            "name": "Chandanaish",
            "name_bn": "চন্দনাইশ"
          },
          {
            "id": 94,
            "division_name": "chittagong",
            "district_name": "chittagong",
            "name": "Fatikchhari",
            "name_bn": "ফটিকছড়ি"
          },
          {
            "id": 95,
            "division_name": "chittagong",
            "district_name": "chittagong",
            "name": "Hathazari",
            "name_bn": "হাটহাজারী"
          },
          {
            "id": 96,
            "division_name": "chittagong",
            "district_name": "chittagong",
            "name": "Lohagara",
            "name_bn": "লোহাগাড়া"
          },
          {
            "id": 97,
            "division_name": "chittagong",
            "district_name": "chittagong",
            "name": "Mirsharai",
            "name_bn": "মিরসরাই"
          },
          {
            "id": 98,
            "division_name": "chittagong",
            "district_name": "chittagong",
            "name": "Patiya",
            "name_bn": "পটিয়া"
          },
          {
            "id": 99,
            "division_name": "chittagong",
            "district_name": "chittagong",
            "name": "Rangunia",
            "name_bn": "রাঙ্গুনিয়া"
          },
          {
            "id": 100,
            "division_name": "chittagong",
            "district_name": "chittagong",
            "name": "Raozan",
            "name_bn": "রাউজান"
          },
          {
            "id": 101,
            "division_name": "chittagong",
            "district_name": "chittagong",
            "name": "Sandwip",
            "name_bn": "সন্দ্বীপ"
          },
          {
            "id": 102,
            "division_name": "chittagong",
            "district_name": "chittagong",
            "name": "Satkania",
            "name_bn": "সাতকানিয়া"
          },
          {
            "id": 103,
            "division_name": "chittagong",
            "district_name": "chittagong",
            "name": "Sitakunda",
            "name_bn": "সীতাকুণ্ড"
          },
          {
            "id": 104,
            "division_name": "chittagong",
            "district_name": "chittagong",
            "name": "karnafuli",
            "name_bn": "কর্ণফুলী"
          }
        ]
      },
      {
        "id": 15,
        "division_name": "chittagong",
        "name": "Cox's Bazar",
        "name_bn": "কক্সবাজার",
        "subdistricts": [
          {
            "id": 105,
            "division_name": "chittagong",
            "district_name": "cox's bazar",
            "name": "Cox's Bazar Sadar",
            "name_bn": "কক্সবাজার সদর"
          },
          {
            "id": 106,
            "division_name": "chittagong",
            "district_name": "cox's bazar",
            "name": "Chakaria",
            "name_bn": "চকরিয়া"
          },
          {
            "id": 107,
            "division_name": "chittagong",
            "district_name": "cox's bazar",
            "name": "Kutubdia",
            "name_bn": "কুতুবদিয়া"
          },
          {
            "id": 108,
            "division_name": "chittagong",
            "district_name": "cox's bazar",
            "name": "Maheshkhali",
            "name_bn": "মহেশখালী"
          },
          {
            "id": 109,
            "division_name": "chittagong",
            "district_name": "cox's bazar",
            "name": "Ramu",
            "name_bn": "রামু"
          },
          {
            "id": 110,
            "division_name": "chittagong",
            "district_name": "cox's bazar",
            "name": "Teknaf",
            "name_bn": "টেকনাফ"
          },
          {
            "id": 111,
            "division_name": "chittagong",
            "district_name": "cox's bazar",
            "name": "Ukhia",
            "name_bn": "উখিয়া"
          },
          {
            "id": 112,
            "division_name": "chittagong",
            "district_name": "cox's bazar",
            "name": "Pekua",
            "name_bn": "পেকুয়া"
          }
        ]
      },
      {
        "id": 16,
        "division_name": "chittagong",
        "name": "Comilla",
        "name_bn": "কুমিল্লা",
        "subdistricts": [
          {
            "id": 113,
            "division_name": "chittagong",
            "district_name": "comilla",
            "name": "Comilla Sadar",
            "name_bn": "কুমিল্লা সদর"
          },
          {
            "id": 114,
            "division_name": "chittagong",
            "district_name": "comilla",
            "name": "Barura",
            "name_bn": "বরুড়া"
          },
          {
            "id": 115,
            "division_name": "chittagong",
            "district_name": "comilla",
            "name": "Brahmanpara",
            "name_bn": "ব্রাহ্মণপাড়া"
          },
          {
            "id": 116,
            "division_name": "chittagong",
            "district_name": "comilla",
            "name": "Burichang",
            "name_bn": "বুড়িচং"
          },
          {
            "id": 117,
            "division_name": "chittagong",
            "district_name": "comilla",
            "name": "Chandina",
            "name_bn": "চান্দিনা"
          },
          {
            "id": 118,
            "division_name": "chittagong",
            "district_name": "comilla",
            "name": "Chauddagram",
            "name_bn": "চৌদ্দগ্রাম"
          },
          {
            "id": 119,
            "division_name": "chittagong",
            "district_name": "comilla",
            "name": "Daudkandi",
            "name_bn": "দাউদকান্দি"
          },
          {
            "id": 120,
            "division_name": "chittagong",
            "district_name": "comilla",
            "name": "Debidwar",
            "name_bn": "দেবিদ্বার"
          },
          {
            "id": 121,
            "division_name": "chittagong",
            "district_name": "comilla",
            "name": "Homna",
            "name_bn": "হোমনা"
          },
          {
            "id": 122,
            "division_name": "chittagong",
            "district_name": "comilla",
            "name": "Laksam",
            "name_bn": "লাকসাম"
          },
          {
            "id": 123,
            "division_name": "chittagong",
            "district_name": "comilla",
            "name": "Muradnagar",
            "name_bn": "মুরাদনগর"
          },
          {
            "id": 124,
            "division_name": "chittagong",
            "district_name": "comilla",
            "name": "Nangalkot",
            "name_bn": "নাঙ্গালকোট"
          },
          {
            "id": 125,
            "division_name": "chittagong",
            "district_name": "comilla",
            "name": "Meghna",
            "name_bn": "মেঘনা"
          },
          {
            "id": 126,
            "division_name": "chittagong",
            "district_name": "comilla",
            "name": "Monohargonj",
            "name_bn": "মনোহরগঞ্জ"
          },
          {
            "id": 127,
            "division_name": "chittagong",
            "district_name": "comilla",
            "name": "Titas",
            "name_bn": "তিতাস"
          },
          {
            "id": 128,
            "division_name": "chittagong",
            "district_name": "comilla",
            "name": "Comilla Sadar South",
            "name_bn": "কুমিল্লা সদর দক্ষিণ"
          },
          {
            "id": 129,
            "division_name": "chittagong",
            "district_name": "comilla",
            "name": "Lalmai",
            "name_bn": "লালমাই"
          }
        ]
      },
      {
        "id": 17,
        "division_name": "chittagong",
        "name": "Chandpur",
        "name_bn": "চাঁদপুর",
        "subdistricts": [
          {
            "id": 130,
            "division_name": "chittagong",
            "district_name": "chandpur",
            "name": "Chandpur Sadar",
            "name_bn": "চাঁদপুর সদর"
          },
          {
            "id": 131,
            "division_name": "chittagong",
            "district_name": "chandpur",
            "name": "Faridganj",
            "name_bn": "ফরিদগঞ্জ"
          },
          {
            "id": 132,
            "division_name": "chittagong",
            "district_name": "chandpur",
            "name": "Haimchar",
            "name_bn": "হাইমচর"
          },
          {
            "id": 133,
            "division_name": "chittagong",
            "district_name": "chandpur",
            "name": "Haziganj",
            "name_bn": "হাজীগঞ্জ"
          },
          {
            "id": 134,
            "division_name": "chittagong",
            "district_name": "chandpur",
            "name": "Kachua",
            "name_bn": "কচুয়া"
          },
          {
            "id": 135,
            "division_name": "chittagong",
            "district_name": "chandpur",
            "name": "Matlab North",
            "name_bn": "মতলব উত্তর"
          },
          {
            "id": 136,
            "division_name": "chittagong",
            "district_name": "chandpur",
            "name": "Matlab South",
            "name_bn": "মতলব দক্ষিণ"
          },
          {
            "id": 137,
            "division_name": "chittagong",
            "district_name": "chandpur",
            "name": "Shahrasti",
            "name_bn": "শাহরাস্তি"
          }
        ]
      },
      {
        "id": 18,
        "division_name": "chittagong",
        "name": "Lakshmipur",
        "name_bn": "লক্ষ্মীপুর",
        "subdistricts": [
          {
            "id": 138,
            "division_name": "chittagong",
            "district_name": "lakshmipur",
            "name": "Lakshmipur Sadar",
            "name_bn": "লক্ষ্মীপুর সদর"
          },
          {
            "id": 139,
            "division_name": "chittagong",
            "district_name": "lakshmipur",
            "name": "Raipur",
            "name_bn": "রায়পুর"
          },
          {
            "id": 140,
            "division_name": "chittagong",
            "district_name": "lakshmipur",
            "name": "Ramganj",
            "name_bn": "রামগঞ্জ"
          },
          {
            "id": 141,
            "division_name": "chittagong",
            "district_name": "lakshmipur",
            "name": "Ramgati",
            "name_bn": "রামগতি"
          },
          {
            "id": 142,
            "division_name": "chittagong",
            "district_name": "lakshmipur",
            "name": "Kamalnagar",
            "name_bn": "কমলনগর"
          }
        ]
      },
      {
        "id": 19,
        "division_name": "chittagong",
        "name": "Noakhali",
        "name_bn": "নোয়াখালী",
        "subdistricts": [
          {
            "id": 143,
            "division_name": "chittagong",
            "district_name": "noakhali",
            "name": "Noakhali Sadar",
            "name_bn": "নোয়াখালী সদর"
          },
          {
            "id": 144,
            "division_name": "chittagong",
            "district_name": "noakhali",
            "name": "Begumganj",
            "name_bn": "বেগমগঞ্জ"
          },
          {
            "id": 145,
            "division_name": "chittagong",
            "district_name": "noakhali",
            "name": "Chatkhil",
            "name_bn": "চাটখিল"
          },
          {
            "id": 146,
            "division_name": "chittagong",
            "district_name": "noakhali",
            "name": "Companiganj",
            "name_bn": "কোম্পানীগঞ্জ"
          },
          {
            "id": 147,
            "division_name": "chittagong",
            "district_name": "noakhali",
            "name": "Hatiya",
            "name_bn": "হাতিয়া"
          },
          {
            "id": 148,
            "division_name": "chittagong",
            "district_name": "noakhali",
            "name": "Kabirhat",
            "name_bn": "কবিরহাট"
          },
          {
            "id": 149,
            "division_name": "chittagong",
            "district_name": "noakhali",
            "name": "Khalifaerhat",
            "name_bn": "খালিফারহাট"
          },
          {
            "id": 150,
            "division_name": "chittagong",
            "district_name": "noakhali",
            "name": "Senbagh",
            "name_bn": "সেনবাগ"
          },
          {
            "id": 151,
            "division_name": "chittagong",
            "district_name": "noakhali",
            "name": "Subarnachar",
            "name_bn": "সুবর্ণচর"
          },
          {
            "id": 152,
            "division_name": "chittagong",
            "district_name": "noakhali",
            "name": "Sonaimuri",
            "name_bn": "সোনাইমুড়ী"
          }
        ]
      },
      {
        "id": 20,
        "division_name": "chittagong",
        "name": "Feni",
        "name_bn": "ফেনী",
        "subdistricts": [
          {
            "id": 153,
            "division_name": "chittagong",
            "district_name": "feni",
            "name": "Feni Sadar",
            "name_bn": "ফেনী সদর"
          },
          {
            "id": 154,
            "division_name": "chittagong",
            "district_name": "feni",
            "name": "Chhagalnaiya",
            "name_bn": "ছাগলনাইয়া"
          },
          {
            "id": 155,
            "division_name": "chittagong",
            "district_name": "feni",
            "name": "Daganbhuiyan",
            "name_bn": "দাগানভূইয়া"
          },
          {
            "id": 156,
            "division_name": "chittagong",
            "district_name": "feni",
            "name": "Parshuram",
            "name_bn": "পরশুরাম"
          },
          {
            "id": 157,
            "division_name": "chittagong",
            "district_name": "feni",
            "name": "Sonagazi",
            "name_bn": "সোনাগাজী"
          },
          {
            "id": 158,
            "division_name": "chittagong",
            "district_name": "feni",
            "name": "Fulgazi",
            "name_bn": "ফুলগাজী"
          }
        ]
      },
      {
        "id": 21,
        "division_name": "chittagong",
        "name": "Brahmanbaria",
        "name_bn": "ব্রাহ্মণবাড়িয়া",
        "subdistricts": [
          {
            "id": 159,
            "division_name": "chittagong",
            "district_name": "brahmanbaria",
            "name": "Brahmanbaria Sadar",
            "name_bn": "ব্রাহ্মণবাড়িয়া সদর"
          },
          {
            "id": 160,
            "division_name": "chittagong",
            "district_name": "brahmanbaria",
            "name": "Akhaura",
            "name_bn": "আখাউড়া"
          },
          {
            "id": 161,
            "division_name": "chittagong",
            "district_name": "brahmanbaria",
            "name": "Bancharampur",
            "name_bn": "বাঞ্ছারামপুর"
          },
          {
            "id": 162,
            "division_name": "chittagong",
            "district_name": "brahmanbaria",
            "name": "Bijoynagar",
            "name_bn": "বিজয়নগর"
          },
          {
            "id": 163,
            "division_name": "chittagong",
            "district_name": "brahmanbaria",
            "name": "Kasba",
            "name_bn": "কসবা"
          },
          {
            "id": 164,
            "division_name": "chittagong",
            "district_name": "brahmanbaria",
            "name": "Nabinagar",
            "name_bn": "নবীনগর"
          },
          {
            "id": 165,
            "division_name": "chittagong",
            "district_name": "brahmanbaria",
            "name": "Nasirnagar",
            "name_bn": "নাসিরনগর"
          },
          {
            "id": 166,
            "division_name": "chittagong",
            "district_name": "brahmanbaria",
            "name": "Sarail",
            "name_bn": "সরাইল"
          },
          {
            "id": 167,
            "division_name": "chittagong",
            "district_name": "brahmanbaria",
            "name": "Ashuganj",
            "name_bn": "আশুগঞ্জ"
          }
        ]
      },
      {
        "id": 22,
        "division_name": "chittagong",
        "name": "Rangamati",
        "name_bn": "রাঙ্গামাটি",
        "subdistricts": [
          {
            "id": 168,
            "division_name": "chittagong",
            "district_name": "rangamati",
            "name": "Rangamati Sadar",
            "name_bn": "রাঙ্গামাটি সদর"
          },
          {
            "id": 169,
            "division_name": "chittagong",
            "district_name": "rangamati",
            "name": "Bagaichhari",
            "name_bn": "বাঘাইছড়ি"
          },
          {
            "id": 170,
            "division_name": "chittagong",
            "district_name": "rangamati",
            "name": "Barkal",
            "name_bn": "বরকল"
          },
          {
            "id": 171,
            "division_name": "chittagong",
            "district_name": "rangamati",
            "name": "Kawkhali",
            "name_bn": "কাউখালী"
          },
          {
            "id": 172,
            "division_name": "chittagong",
            "district_name": "rangamati",
            "name": "Belaichhari",
            "name_bn": "বিলাইছড়ি"
          },
          {
            "id": 173,
            "division_name": "chittagong",
            "district_name": "rangamati",
            "name": "Juraichhari",
            "name_bn": "জুরাছড়ি"
          },
          {
            "id": 174,
            "division_name": "chittagong",
            "district_name": "rangamati",
            "name": "Langadu",
            "name_bn": "লংগদু"
          },
          {
            "id": 175,
            "division_name": "chittagong",
            "district_name": "rangamati",
            "name": "Nannerchar",
            "name_bn": "নান্নেরচর"
          },
          {
            "id": 176,
            "division_name": "chittagong",
            "district_name": "rangamati",
            "name": "Rajasthali",
            "name_bn": "রাজস্থলী"
          },
          {
            "id": 177,
            "division_name": "chittagong",
            "district_name": "rangamati",
            "name": "Kaptai",
            "name_bn": "কাপ্তাই"
          }
        ]
      },
      {
        "id": 23,
        "division_name": "chittagong",
        "name": "Khagrachhari",
        "name_bn": "খাগড়াছড়ি",
        "subdistricts": [
          {
            "id": 178,
            "division_name": "chittagong",
            "district_name": "khagrachhari",
            "name": "Khagrachhari Sadar",
            "name_bn": "খাগড়াছড়ি সদর"
          },
          {
            "id": 179,
            "division_name": "chittagong",
            "district_name": "khagrachhari",
            "name": "Dighinala",
            "name_bn": "দিঘীনালা"
          },
          {
            "id": 180,
            "division_name": "chittagong",
            "district_name": "khagrachhari",
            "name": "Lakshmichhari",
            "name_bn": "লক্ষ্মীছড়ি"
          },
          {
            "id": 181,
            "division_name": "chittagong",
            "district_name": "khagrachhari",
            "name": "Mohalchari",
            "name_bn": "মহালছড়ি"
          },
          {
            "id": 182,
            "division_name": "chittagong",
            "district_name": "khagrachhari",
            "name": "Manikchhari",
            "name_bn": "মানিকছড়ি"
          },
          {
            "id": 183,
            "division_name": "chittagong",
            "district_name": "khagrachhari",
            "name": "Matiranga",
            "name_bn": "মাটিরাঙ্গা"
          },
          {
            "id": 184,
            "division_name": "chittagong",
            "district_name": "khagrachhari",
            "name": "Panchhari",
            "name_bn": "পানছড়ি"
          },
          {
            "id": 185,
            "division_name": "chittagong",
            "district_name": "khagrachhari",
            "name": "Ramgarh",
            "name_bn": "রামগড়"
          },
          {
            "id": 186,
            "division_name": "chittagong",
            "district_name": "khagrachhari",
            "name": "Guimara",
            "name_bn": "গুইমারা"
          }
        ]
      },
      {
        "id": 24,
        "division_name": "chittagong",
        "name": "Bandarban",
        "name_bn": "বান্দরবান",
        "subdistricts": [
          {
            "id": 187,
            "division_name": "chittagong",
            "district_name": "bandarban",
            "name": "Bandarban Sadar",
            "name_bn": "বান্দরবান সদর"
          },
          {
            "id": 188,
            "division_name": "chittagong",
            "district_name": "bandarban",
            "name": "Alikadam",
            "name_bn": "আলীকদম"
          },
          {
            "id": 189,
            "division_name": "chittagong",
            "district_name": "bandarban",
            "name": "Lama",
            "name_bn": "লামা"
          },
          {
            "id": 190,
            "division_name": "chittagong",
            "district_name": "bandarban",
            "name": "Naikhongchhari",
            "name_bn": "নাইক্ষ্যংছড়ি"
          },
          {
            "id": 191,
            "division_name": "chittagong",
            "district_name": "bandarban",
            "name": "Rowangchhari",
            "name_bn": "রোয়াংছড়ি"
          },
          {
            "id": 192,
            "division_name": "chittagong",
            "district_name": "bandarban",
            "name": "Ruma",
            "name_bn": "রুমা"
          },
          {
            "id": 193,
            "division_name": "chittagong",
            "district_name": "bandarban",
            "name": "Thanchi",
            "name_bn": "থানচি"
          }
        ]
      }
    ]
  },
  {
    "id": 3,
    "name": "Rajshahi",
    "name_bn": "রাজশাহী",
    "districts": [
      {
        "id": 25,
        "division_name": "rajshahi",
        "name": "Rajshahi",
        "name_bn": "রাজশাহী",
        "subdistricts": [
          {
            "id": 804,
            "division_name": "rajshahi",
            "district_name": "rajshahi",
            "name": "Rajshahi City Corporation",
            "name_bn": "রাজশাহী সিটি কর্পোরেশন"
          },
          {
            "id": 194,
            "division_name": "rajshahi",
            "district_name": "rajshahi",
            "name": "Bagha",
            "name_bn": "বাঘা"
          },
          {
            "id": 195,
            "division_name": "rajshahi",
            "district_name": "rajshahi",
            "name": "Bagmara",
            "name_bn": "বাগমারা"
          },
          {
            "id": 196,
            "division_name": "rajshahi",
            "district_name": "rajshahi",
            "name": "Charghat",
            "name_bn": "চারঘাট"
          },
          {
            "id": 197,
            "division_name": "rajshahi",
            "district_name": "rajshahi",
            "name": "Durgapur",
            "name_bn": "দুর্গাপুর"
          },
          {
            "id": 198,
            "division_name": "rajshahi",
            "district_name": "rajshahi",
            "name": "Godagari",
            "name_bn": "গোদাগাড়ী"
          },
          {
            "id": 199,
            "division_name": "rajshahi",
            "district_name": "rajshahi",
            "name": "Mohanpur",
            "name_bn": "মোহনপুর"
          },
          {
            "id": 200,
            "division_name": "rajshahi",
            "district_name": "rajshahi",
            "name": "Paba",
            "name_bn": "পবা"
          },
          {
            "id": 201,
            "division_name": "rajshahi",
            "district_name": "rajshahi",
            "name": "Puthia",
            "name_bn": "পুঠিয়া"
          },
          {
            "id": 202,
            "division_name": "rajshahi",
            "district_name": "rajshahi",
            "name": "Tanore",
            "name_bn": "তানোর"
          }
        ]
      },
      {
        "id": 26,
        "division_name": "rajshahi",
        "name": "Bogra",
        "name_bn": "বগুড়া",
        "subdistricts": [
          {
            "id": 203,
            "division_name": "rajshahi",
            "district_name": "bogra",
            "name": "Bogra Sadar",
            "name_bn": "বগুড়া সদর"
          },
          {
            "id": 204,
            "division_name": "rajshahi",
            "district_name": "bogra",
            "name": "Adamdighi",
            "name_bn": "আদমদিঘী"
          },
          {
            "id": 205,
            "division_name": "rajshahi",
            "district_name": "bogra",
            "name": "Dhunat",
            "name_bn": "ধুনট"
          },
          {
            "id": 206,
            "division_name": "rajshahi",
            "district_name": "bogra",
            "name": "Dupchanchia",
            "name_bn": "দুপচাঁচিয়া"
          },
          {
            "id": 207,
            "division_name": "rajshahi",
            "district_name": "bogra",
            "name": "Gabtali",
            "name_bn": "গাবতলী"
          },
          {
            "id": 208,
            "division_name": "rajshahi",
            "district_name": "bogra",
            "name": "Kahaloo",
            "name_bn": "কাহালু"
          },
          {
            "id": 209,
            "division_name": "rajshahi",
            "district_name": "bogra",
            "name": "Nandigram",
            "name_bn": "নন্দিগ্রাম"
          },
          {
            "id": 210,
            "division_name": "rajshahi",
            "district_name": "bogra",
            "name": "Sariakandi",
            "name_bn": "সারিয়াকান্দি"
          },
          {
            "id": 211,
            "division_name": "rajshahi",
            "district_name": "bogra",
            "name": "Shajahanpur",
            "name_bn": "শাজাহানপুর"
          },
          {
            "id": 212,
            "division_name": "rajshahi",
            "district_name": "bogra",
            "name": "Sherpur",
            "name_bn": "শেরপুর"
          },
          {
            "id": 213,
            "division_name": "rajshahi",
            "district_name": "bogra",
            "name": "Shibganj",
            "name_bn": "শিবগঞ্জ"
          },
          {
            "id": 214,
            "division_name": "rajshahi",
            "district_name": "bogra",
            "name": "Sonatala",
            "name_bn": "সোনাতলা"
          }
        ]
      },
      {
        "id": 27,
        "division_name": "rajshahi",
        "name": "Pabna",
        "name_bn": "পাবনা",
        "subdistricts": [
          {
            "id": 215,
            "division_name": "rajshahi",
            "district_name": "pabna",
            "name": "Pabna Sadar",
            "name_bn": "পাবনা সদর"
          },
          {
            "id": 216,
            "division_name": "rajshahi",
            "district_name": "pabna",
            "name": "Atgharia",
            "name_bn": "আটঘরিয়া"
          },
          {
            "id": 217,
            "division_name": "rajshahi",
            "district_name": "pabna",
            "name": "Bera",
            "name_bn": "বেড়া"
          },
          {
            "id": 218,
            "division_name": "rajshahi",
            "district_name": "pabna",
            "name": "Bhangura",
            "name_bn": "ভাঙ্গুড়া"
          },
          {
            "id": 219,
            "division_name": "rajshahi",
            "district_name": "pabna",
            "name": "Chatmohar",
            "name_bn": "চাটমোহর"
          },
          {
            "id": 220,
            "division_name": "rajshahi",
            "district_name": "pabna",
            "name": "Faridpur",
            "name_bn": "ফরিদপুর"
          },
          {
            "id": 221,
            "division_name": "rajshahi",
            "district_name": "pabna",
            "name": "Ishwardi",
            "name_bn": "ঈশ্বরদী"
          },
          {
            "id": 222,
            "division_name": "rajshahi",
            "district_name": "pabna",
            "name": "Santhia",
            "name_bn": "সাঁথিয়া"
          },
          {
            "id": 223,
            "division_name": "rajshahi",
            "district_name": "pabna",
            "name": "Sujanagar",
            "name_bn": "সুজানগর"
          }
        ]
      },
      {
        "id": 28,
        "division_name": "rajshahi",
        "name": "Sirajganj",
        "name_bn": "সিরাজগঞ্জ",
        "subdistricts": [
          {
            "id": 224,
            "division_name": "rajshahi",
            "district_name": "sirajganj",
            "name": "Sirajganj Sadar",
            "name_bn": "সিরাজগঞ্জ সদর"
          },
          {
            "id": 225,
            "division_name": "rajshahi",
            "district_name": "sirajganj",
            "name": "Belkuchi",
            "name_bn": "বেলকুচি"
          },
          {
            "id": 226,
            "division_name": "rajshahi",
            "district_name": "sirajganj",
            "name": "Chauhali",
            "name_bn": "চৌহালী"
          },
          {
            "id": 227,
            "division_name": "rajshahi",
            "district_name": "sirajganj",
            "name": "Kamarkhanda",
            "name_bn": "কামারখন্দ"
          },
          {
            "id": 228,
            "division_name": "rajshahi",
            "district_name": "sirajganj",
            "name": "Kazipur",
            "name_bn": "কাজীপুর"
          },
          {
            "id": 229,
            "division_name": "rajshahi",
            "district_name": "sirajganj",
            "name": "Raiganj",
            "name_bn": "রায়গঞ্জ"
          },
          {
            "id": 230,
            "division_name": "rajshahi",
            "district_name": "sirajganj",
            "name": "Shahjadpur",
            "name_bn": "শাহজাদপুর"
          },
          {
            "id": 231,
            "division_name": "rajshahi",
            "district_name": "sirajganj",
            "name": "Tarash",
            "name_bn": "তাড়াশ"
          },
          {
            "id": 232,
            "division_name": "rajshahi",
            "district_name": "sirajganj",
            "name": "Ullahpara",
            "name_bn": "উল্লাপাড়া"
          }
        ]
      },
      {
        "id": 29,
        "division_name": "rajshahi",
        "name": "Natore",
        "name_bn": "নাটোর",
        "subdistricts": [
          {
            "id": 233,
            "division_name": "rajshahi",
            "district_name": "natore",
            "name": "Natore Sadar",
            "name_bn": "নাটোর সদর"
          },
          {
            "id": 234,
            "division_name": "rajshahi",
            "district_name": "natore",
            "name": "Baraigram",
            "name_bn": "বড়াইগ্রাম"
          },
          {
            "id": 235,
            "division_name": "rajshahi",
            "district_name": "natore",
            "name": "Bagatipara",
            "name_bn": "বাগাতিপাড়া"
          },
          {
            "id": 236,
            "division_name": "rajshahi",
            "district_name": "natore",
            "name": "Gurudaspur",
            "name_bn": "গুরুদাসপুর"
          },
          {
            "id": 237,
            "division_name": "rajshahi",
            "district_name": "natore",
            "name": "Lalpur",
            "name_bn": "লালপুর"
          },
          {
            "id": 238,
            "division_name": "rajshahi",
            "district_name": "natore",
            "name": "Singra",
            "name_bn": "সিংড়া"
          },
          {
            "id": 239,
            "division_name": "rajshahi",
            "district_name": "natore",
            "name": "Naldanga",
            "name_bn": "নলডাঙ্গা"
          }
        ]
      },
      {
        "id": 30,
        "division_name": "rajshahi",
        "name": "Joypurhat",
        "name_bn": "জয়পুরহাট",
        "subdistricts": [
          {
            "id": 240,
            "division_name": "rajshahi",
            "district_name": "joypurhat",
            "name": "Joypurhat Sadar",
            "name_bn": "জয়পুরহাট সদর"
          },
          {
            "id": 241,
            "division_name": "rajshahi",
            "district_name": "joypurhat",
            "name": "Akkelpur",
            "name_bn": "আক্কেলপুর"
          },
          {
            "id": 242,
            "division_name": "rajshahi",
            "district_name": "joypurhat",
            "name": "Kalai",
            "name_bn": "কালাই"
          },
          {
            "id": 243,
            "division_name": "rajshahi",
            "district_name": "joypurhat",
            "name": "Khetlal",
            "name_bn": "খেতলাল"
          },
          {
            "id": 244,
            "division_name": "rajshahi",
            "district_name": "joypurhat",
            "name": "Panchbibi",
            "name_bn": "পাঁচবিবি"
          }
        ]
      },
      {
        "id": 31,
        "division_name": "rajshahi",
        "name": "Chapainawabganj",
        "name_bn": "চাঁপাইনবাবগঞ্জ",
        "subdistricts": [
          {
            "id": 245,
            "division_name": "rajshahi",
            "district_name": "chapainawabganj",
            "name": "Chapainawabganj Sadar",
            "name_bn": "চাঁপাইনবাবগঞ্জ সদর"
          },
          {
            "id": 246,
            "division_name": "rajshahi",
            "district_name": "chapainawabganj",
            "name": "Bholahat",
            "name_bn": "ভোলাহাট"
          },
          {
            "id": 247,
            "division_name": "rajshahi",
            "district_name": "chapainawabganj",
            "name": "Gomastapur",
            "name_bn": "গোমস্তাপুর"
          },
          {
            "id": 248,
            "division_name": "rajshahi",
            "district_name": "chapainawabganj",
            "name": "Nachole",
            "name_bn": "নাচোল"
          },
          {
            "id": 249,
            "division_name": "rajshahi",
            "district_name": "chapainawabganj",
            "name": "Shibganj",
            "name_bn": "শিবগঞ্জ"
          }
        ]
      },
      {
        "id": 32,
        "division_name": "rajshahi",
        "name": "Naogaon",
        "name_bn": "নওগাঁ",
        "subdistricts": [
          {
            "id": 250,
            "division_name": "rajshahi",
            "district_name": "naogaon",
            "name": "Naogaon Sadar",
            "name_bn": "নওগাঁ সদর"
          },
          {
            "id": 251,
            "division_name": "rajshahi",
            "district_name": "naogaon",
            "name": "Atrai",
            "name_bn": "আত্রাই"
          },
          {
            "id": 252,
            "division_name": "rajshahi",
            "district_name": "naogaon",
            "name": "Badalgachhi",
            "name_bn": "বদলগাছী"
          },
          {
            "id": 253,
            "division_name": "rajshahi",
            "district_name": "naogaon",
            "name": "Manda",
            "name_bn": "মান্দা"
          },
          {
            "id": 254,
            "division_name": "rajshahi",
            "district_name": "naogaon",
            "name": "Dhamoirhat",
            "name_bn": "ধামইরহাট"
          },
          {
            "id": 255,
            "division_name": "rajshahi",
            "district_name": "naogaon",
            "name": "Mahadevpur",
            "name_bn": "মহাদেবপুর"
          },
          {
            "id": 256,
            "division_name": "rajshahi",
            "district_name": "naogaon",
            "name": "Niamatpur",
            "name_bn": "নিয়ামতপুর"
          },
          {
            "id": 257,
            "division_name": "rajshahi",
            "district_name": "naogaon",
            "name": "Patnitala",
            "name_bn": "পত্নিতলা"
          },
          {
            "id": 258,
            "division_name": "rajshahi",
            "district_name": "naogaon",
            "name": "Porsha",
            "name_bn": "পোরশা"
          },
          {
            "id": 259,
            "division_name": "rajshahi",
            "district_name": "naogaon",
            "name": "Raninagar",
            "name_bn": "রাণীনগর"
          },
          {
            "id": 260,
            "division_name": "rajshahi",
            "district_name": "naogaon",
            "name": "Sapahar",
            "name_bn": "সাপাহার"
          }
        ]
      }
    ]
  },
  {
    "id": 4,
    "name": "Khulna",
    "name_bn": "খুলনা",
    "districts": [
      {
        "id": 33,
        "division_name": "khulna",
        "name": "Khulna",
        "name_bn": "খুলনা",
        "subdistricts": [
          {
            "id": 805,
            "division_name": "khulna",
            "district_name": "khulna",
            "name": "Khulna City Corporation",
            "name_bn": "খুলনা সিটি কর্পোরেশন"
          },
          {
            "id": 261,
            "division_name": "khulna",
            "district_name": "khulna",
            "name": "Batiaghata",
            "name_bn": "বটিয়াঘাটা"
          },
          {
            "id": 262,
            "division_name": "khulna",
            "district_name": "khulna",
            "name": "Dacope",
            "name_bn": "দাকোপ"
          },
          {
            "id": 263,
            "division_name": "khulna",
            "district_name": "khulna",
            "name": "Dighalia",
            "name_bn": "দিঘলিয়া"
          },
          {
            "id": 264,
            "division_name": "khulna",
            "district_name": "khulna",
            "name": "Dumuria",
            "name_bn": "ডুমুরিয়া"
          },
          {
            "id": 265,
            "division_name": "khulna",
            "district_name": "khulna",
            "name": "Koyra",
            "name_bn": "কয়রা"
          },
          {
            "id": 266,
            "division_name": "khulna",
            "district_name": "khulna",
            "name": "Paikgachha",
            "name_bn": "পাইকগাছা"
          },
          {
            "id": 267,
            "division_name": "khulna",
            "district_name": "khulna",
            "name": "Phultala",
            "name_bn": "ফুলতলা"
          },
          {
            "id": 268,
            "division_name": "khulna",
            "district_name": "khulna",
            "name": "Rupsa",
            "name_bn": "রূপসা"
          },
          {
            "id": 269,
            "division_name": "khulna",
            "district_name": "khulna",
            "name": "Terokhada",
            "name_bn": "তেরখাদা"
          }
        ]
      },
      {
        "id": 34,
        "division_name": "khulna",
        "name": "Jessore",
        "name_bn": "যশোর",
        "subdistricts": [
          {
            "id": 270,
            "division_name": "khulna",
            "district_name": "jessore",
            "name": "Jessore Sadar",
            "name_bn": "যশোর সদর"
          },
          {
            "id": 271,
            "division_name": "khulna",
            "district_name": "jessore",
            "name": "Abhaynagar",
            "name_bn": "অভয়নগর"
          },
          {
            "id": 272,
            "division_name": "khulna",
            "district_name": "jessore",
            "name": "Bagherpara",
            "name_bn": "বাঘারপাড়া"
          },
          {
            "id": 273,
            "division_name": "khulna",
            "district_name": "jessore",
            "name": "Chaugachha",
            "name_bn": "চৌগাছা"
          },
          {
            "id": 274,
            "division_name": "khulna",
            "district_name": "jessore",
            "name": "Jhikargachha",
            "name_bn": "ঝিকরগাছা"
          },
          {
            "id": 275,
            "division_name": "khulna",
            "district_name": "jessore",
            "name": "Keshabpur",
            "name_bn": "কেশবপুর"
          },
          {
            "id": 276,
            "division_name": "khulna",
            "district_name": "jessore",
            "name": "Manirampur",
            "name_bn": "মণিরামপুর"
          },
          {
            "id": 277,
            "division_name": "khulna",
            "district_name": "jessore",
            "name": "Sharsha",
            "name_bn": "শার্শা"
          }
        ]
      },
      {
        "id": 35,
        "division_name": "khulna",
        "name": "Satkhira",
        "name_bn": "সাতক্ষীরা",
        "subdistricts": [
          {
            "id": 278,
            "division_name": "khulna",
            "district_name": "satkhira",
            "name": "Satkhira Sadar",
            "name_bn": "সাতক্ষীরা সদর"
          },
          {
            "id": 279,
            "division_name": "khulna",
            "district_name": "satkhira",
            "name": "Assasuni",
            "name_bn": "আশাশুনি"
          },
          {
            "id": 280,
            "division_name": "khulna",
            "district_name": "satkhira",
            "name": "Debhata",
            "name_bn": "দেবহাটা"
          },
          {
            "id": 281,
            "division_name": "khulna",
            "district_name": "satkhira",
            "name": "Kalaroa",
            "name_bn": "কলারোয়া"
          },
          {
            "id": 282,
            "division_name": "khulna",
            "district_name": "satkhira",
            "name": "Kaliganj",
            "name_bn": "কালিগঞ্জ"
          },
          {
            "id": 283,
            "division_name": "khulna",
            "district_name": "satkhira",
            "name": "Shyamnagar",
            "name_bn": "শ্যামনগর"
          },
          {
            "id": 284,
            "division_name": "khulna",
            "district_name": "satkhira",
            "name": "Tala",
            "name_bn": "তালা"
          }
        ]
      },
      {
        "id": 36,
        "division_name": "khulna",
        "name": "Bagerhat",
        "name_bn": "বাগেরহাট",
        "subdistricts": [
          {
            "id": 285,
            "division_name": "khulna",
            "district_name": "bagerhat",
            "name": "Bagerhat Sadar",
            "name_bn": "বাগেরহাট সদর"
          },
          {
            "id": 286,
            "division_name": "khulna",
            "district_name": "bagerhat",
            "name": "Chitalmari",
            "name_bn": "চিতলমারী"
          },
          {
            "id": 287,
            "division_name": "khulna",
            "district_name": "bagerhat",
            "name": "Fakirhat",
            "name_bn": "ফকিরহাট"
          },
          {
            "id": 288,
            "division_name": "khulna",
            "district_name": "bagerhat",
            "name": "Kachua",
            "name_bn": "কচুয়া"
          },
          {
            "id": 289,
            "division_name": "khulna",
            "district_name": "bagerhat",
            "name": "Mollahat",
            "name_bn": "মোল্লাহাট"
          },
          {
            "id": 290,
            "division_name": "khulna",
            "district_name": "bagerhat",
            "name": "Mongla",
            "name_bn": "মোংলা"
          },
          {
            "id": 291,
            "division_name": "khulna",
            "district_name": "bagerhat",
            "name": "Morrelganj",
            "name_bn": "মোড়েলগঞ্জ"
          },
          {
            "id": 292,
            "division_name": "khulna",
            "district_name": "bagerhat",
            "name": "Rampal",
            "name_bn": "রামপাল"
          },
          {
            "id": 293,
            "division_name": "khulna",
            "district_name": "bagerhat",
            "name": "Sarankhola",
            "name_bn": "শরণখোলা"
          }
        ]
      },
      {
        "id": 37,
        "division_name": "khulna",
        "name": "Chuadanga",
        "name_bn": "চুয়াডাঙ্গা",
        "subdistricts": [
          {
            "id": 294,
            "division_name": "khulna",
            "district_name": "chuadanga",
            "name": "Chuadanga Sadar",
            "name_bn": "চুয়াডাঙ্গা সদর"
          },
          {
            "id": 295,
            "division_name": "khulna",
            "district_name": "chuadanga",
            "name": "Alamdanga",
            "name_bn": "আলমডাঙ্গা"
          },
          {
            "id": 296,
            "division_name": "khulna",
            "district_name": "chuadanga",
            "name": "Damurhuda",
            "name_bn": "দামুড়হুদা"
          },
          {
            "id": 297,
            "division_name": "khulna",
            "district_name": "chuadanga",
            "name": "Jibannagar",
            "name_bn": "জীবননগর"
          }
        ]
      },
      {
        "id": 38,
        "division_name": "khulna",
        "name": "Jhenaidah",
        "name_bn": "ঝিনাইদহ",
        "subdistricts": [
          {
            "id": 298,
            "division_name": "khulna",
            "district_name": "jhenaidah",
            "name": "Jhenaidah Sadar",
            "name_bn": "ঝিনাইদহ সদর"
          },
          {
            "id": 299,
            "division_name": "khulna",
            "district_name": "jhenaidah",
            "name": "Harinakunda",
            "name_bn": "হরিণাকুন্ডু"
          },
          {
            "id": 300,
            "division_name": "khulna",
            "district_name": "jhenaidah",
            "name": "Kaliganj",
            "name_bn": "কালিগঞ্জ"
          },
          {
            "id": 301,
            "division_name": "khulna",
            "district_name": "jhenaidah",
            "name": "Kotchandpur",
            "name_bn": "কোটচাঁদপুর"
          },
          {
            "id": 302,
            "division_name": "khulna",
            "district_name": "jhenaidah",
            "name": "Maheshpur",
            "name_bn": "মহেশপুর"
          },
          {
            "id": 303,
            "division_name": "khulna",
            "district_name": "jhenaidah",
            "name": "Shailkupa",
            "name_bn": "শৈলকুপা"
          }
        ]
      },
      {
        "id": 39,
        "division_name": "khulna",
        "name": "Kushtia",
        "name_bn": "কুষ্টিয়া",
        "subdistricts": [
          {
            "id": 304,
            "division_name": "khulna",
            "district_name": "kushtia",
            "name": "Kushtia Sadar",
            "name_bn": "কুষ্টিয়া সদর"
          },
          {
            "id": 305,
            "division_name": "khulna",
            "district_name": "kushtia",
            "name": "Bheramara",
            "name_bn": "ভেড়ামারা"
          },
          {
            "id": 306,
            "division_name": "khulna",
            "district_name": "kushtia",
            "name": "Daulatpur",
            "name_bn": "দৌলতপুর"
          },
          {
            "id": 307,
            "division_name": "khulna",
            "district_name": "kushtia",
            "name": "Kumarkhali",
            "name_bn": "কুমারখালী"
          },
          {
            "id": 308,
            "division_name": "khulna",
            "district_name": "kushtia",
            "name": "Khoksa",
            "name_bn": "খোকসা"
          },
          {
            "id": 309,
            "division_name": "khulna",
            "district_name": "kushtia",
            "name": "Mirpur",
            "name_bn": "মিরপুর"
          }
        ]
      },
      {
        "id": 40,
        "division_name": "khulna",
        "name": "Magura",
        "name_bn": "মাগুরা",
        "subdistricts": [
          {
            "id": 310,
            "division_name": "khulna",
            "district_name": "magura",
            "name": "Magura Sadar",
            "name_bn": "মাগুরা সদর"
          },
          {
            "id": 311,
            "division_name": "khulna",
            "district_name": "magura",
            "name": "Mohammadpur",
            "name_bn": "মোহাম্মদপুর"
          },
          {
            "id": 312,
            "division_name": "khulna",
            "district_name": "magura",
            "name": "Shalikha",
            "name_bn": "শালিখা"
          },
          {
            "id": 313,
            "division_name": "khulna",
            "district_name": "magura",
            "name": "Sreepur",
            "name_bn": "শ্রীপুর"
          }
        ]
      },
      {
        "id": 41,
        "division_name": "khulna",
        "name": "Meherpur",
        "name_bn": "মেহেরপুর",
        "subdistricts": [
          {
            "id": 314,
            "division_name": "khulna",
            "district_name": "meherpur",
            "name": "Meherpur Sadar",
            "name_bn": "মেহেরপুর সদর"
          },
          {
            "id": 315,
            "division_name": "khulna",
            "district_name": "meherpur",
            "name": "Gangni",
            "name_bn": "গাংনী"
          },
          {
            "id": 316,
            "division_name": "khulna",
            "district_name": "meherpur",
            "name": "Mujibnagar",
            "name_bn": "মুজিবনগর"
          }
        ]
      },
      {
        "id": 42,
        "division_name": "khulna",
        "name": "Narail",
        "name_bn": "নড়াইল",
        "subdistricts": [
          {
            "id": 317,
            "division_name": "khulna",
            "district_name": "narail",
            "name": "Narail Sadar",
            "name_bn": "নড়াইল সদর"
          },
          {
            "id": 318,
            "division_name": "khulna",
            "district_name": "narail",
            "name": "Kalia",
            "name_bn": "কালিয়া"
          },
          {
            "id": 319,
            "division_name": "khulna",
            "district_name": "narail",
            "name": "Lohagara",
            "name_bn": "লোহাগড়া"
          }
        ]
      }
    ]
  },
  {
    "id": 5,
    "name": "Barisal",
    "name_bn": "বরিশাল",
    "districts": [
      {
        "id": 43,
        "division_name": "barisal",
        "name": "Barisal",
        "name_bn": "বরিশাল",
        "subdistricts": [
          {
            "id": 320,
            "division_name": "barisal",
            "district_name": "barisal",
            "name": "Barisal Sadar",
            "name_bn": "বরিশাল সদর"
          },
          {
            "id": 321,
            "division_name": "barisal",
            "district_name": "barisal",
            "name": "Agailjhara",
            "name_bn": "আগৈলঝাড়া"
          },
          {
            "id": 322,
            "division_name": "barisal",
            "district_name": "barisal",
            "name": "Babuganj",
            "name_bn": "বাবুগঞ্জ"
          },
          {
            "id": 323,
            "division_name": "barisal",
            "district_name": "barisal",
            "name": "Bakerganj",
            "name_bn": "বাকেরগঞ্জ"
          },
          {
            "id": 324,
            "division_name": "barisal",
            "district_name": "barisal",
            "name": "Banaripara",
            "name_bn": "বানারীপাড়া"
          },
          {
            "id": 325,
            "division_name": "barisal",
            "district_name": "barisal",
            "name": "Gaurnadi",
            "name_bn": "গৌরনদী"
          },
          {
            "id": 326,
            "division_name": "barisal",
            "district_name": "barisal",
            "name": "Hizla",
            "name_bn": "হিজলা"
          },
          {
            "id": 327,
            "division_name": "barisal",
            "district_name": "barisal",
            "name": "Mehendiganj",
            "name_bn": "মেহেন্দিগঞ্জ"
          },
          {
            "id": 328,
            "division_name": "barisal",
            "district_name": "barisal",
            "name": "Muladi",
            "name_bn": "মুলাদী"
          },
          {
            "id": 329,
            "division_name": "barisal",
            "district_name": "barisal",
            "name": "Wazirpur",
            "name_bn": "উজিরপুর"
          }
        ]
      },
      {
        "id": 44,
        "division_name": "barisal",
        "name": "Barguna",
        "name_bn": "বরগুনা",
        "subdistricts": [
          {
            "id": 330,
            "division_name": "barisal",
            "district_name": "barguna",
            "name": "Barguna Sadar",
            "name_bn": "বরগুনা সদর"
          },
          {
            "id": 331,
            "division_name": "barisal",
            "district_name": "barguna",
            "name": "Amtali",
            "name_bn": "আমতলী"
          },
          {
            "id": 332,
            "division_name": "barisal",
            "district_name": "barguna",
            "name": "Bamna",
            "name_bn": "বামনা"
          },
          {
            "id": 333,
            "division_name": "barisal",
            "district_name": "barguna",
            "name": "Betagi",
            "name_bn": "বেতাগী"
          },
          {
            "id": 334,
            "division_name": "barisal",
            "district_name": "barguna",
            "name": "Patharghata",
            "name_bn": "পাথরঘাটা"
          },
          {
            "id": 335,
            "division_name": "barisal",
            "district_name": "barguna",
            "name": "Taltali",
            "name_bn": "তালতলী"
          }
        ]
      },
      {
        "id": 45,
        "division_name": "barisal",
        "name": "Bhola",
        "name_bn": "ভোলা",
        "subdistricts": [
          {
            "id": 336,
            "division_name": "barisal",
            "district_name": "bhola",
            "name": "Bhola Sadar",
            "name_bn": "ভোলা সদর"
          },
          {
            "id": 337,
            "division_name": "barisal",
            "district_name": "bhola",
            "name": "Burhanuddin",
            "name_bn": "বোরহানউদ্দিন"
          },
          {
            "id": 338,
            "division_name": "barisal",
            "district_name": "bhola",
            "name": "Charfasson",
            "name_bn": "চরফ্যাশন"
          },
          {
            "id": 339,
            "division_name": "barisal",
            "district_name": "bhola",
            "name": "Daulatkhan",
            "name_bn": "দৌলতখান"
          },
          {
            "id": 340,
            "division_name": "barisal",
            "district_name": "bhola",
            "name": "Lalmohan",
            "name_bn": "লালমোহন"
          },
          {
            "id": 341,
            "division_name": "barisal",
            "district_name": "bhola",
            "name": "Manpura",
            "name_bn": "মনপুরা"
          },
          {
            "id": 342,
            "division_name": "barisal",
            "district_name": "bhola",
            "name": "Tazumuddin",
            "name_bn": "তজুমদ্দিন"
          }
        ]
      },
      {
        "id": 46,
        "division_name": "barisal",
        "name": "Jhalokati",
        "name_bn": "ঝালকাঠি",
        "subdistricts": [
          {
            "id": 343,
            "division_name": "barisal",
            "district_name": "jhalokati",
            "name": "Jhalokati Sadar",
            "name_bn": "ঝালকাঠি সদর"
          },
          {
            "id": 344,
            "division_name": "barisal",
            "district_name": "jhalokati",
            "name": "Kathalia",
            "name_bn": "কাঠালিয়া"
          },
          {
            "id": 345,
            "division_name": "barisal",
            "district_name": "jhalokati",
            "name": "Nalchiti",
            "name_bn": "নলছিটি"
          },
          {
            "id": 346,
            "division_name": "barisal",
            "district_name": "jhalokati",
            "name": "Rajapur",
            "name_bn": "রাজাপুর"
          }
        ]
      },
      {
        "id": 47,
        "division_name": "barisal",
        "name": "Patuakhali",
        "name_bn": "পটুয়াখালী",
        "subdistricts": [
          {
            "id": 347,
            "division_name": "barisal",
            "district_name": "patuakhali",
            "name": "Patuakhali Sadar",
            "name_bn": "পটুয়াখালী সদর"
          },
          {
            "id": 348,
            "division_name": "barisal",
            "district_name": "patuakhali",
            "name": "Bauphal",
            "name_bn": "বাউফল"
          },
          {
            "id": 349,
            "division_name": "barisal",
            "district_name": "patuakhali",
            "name": "Dashmina",
            "name_bn": "দশমিনা"
          },
          {
            "id": 350,
            "division_name": "barisal",
            "district_name": "patuakhali",
            "name": "Galachipa",
            "name_bn": "গলাচিপা"
          },
          {
            "id": 351,
            "division_name": "barisal",
            "district_name": "patuakhali",
            "name": "Kalapara",
            "name_bn": "কলাপাড়া"
          },
          {
            "id": 352,
            "division_name": "barisal",
            "district_name": "patuakhali",
            "name": "Mirzaganj",
            "name_bn": "মির্জাগঞ্জ"
          },
          {
            "id": 353,
            "division_name": "barisal",
            "district_name": "patuakhali",
            "name": "Rangabali",
            "name_bn": "রাঙ্গাবালী"
          },
          {
            "id": 354,
            "division_name": "barisal",
            "district_name": "patuakhali",
            "name": "Dumki",
            "name_bn": "দুমকি"
          }
        ]
      },
      {
        "id": 48,
        "division_name": "barisal",
        "name": "Pirojpur",
        "name_bn": "পিরোজপুর",
        "subdistricts": [
          {
            "id": 355,
            "division_name": "barisal",
            "district_name": "pirojpur",
            "name": "Pirojpur Sadar",
            "name_bn": "পিরোজপুর সদর"
          },
          {
            "id": 356,
            "division_name": "barisal",
            "district_name": "pirojpur",
            "name": "Bhandaria",
            "name_bn": "ভাণ্ডারিয়া"
          },
          {
            "id": 357,
            "division_name": "barisal",
            "district_name": "pirojpur",
            "name": "Kaukhali",
            "name_bn": "কাউখালী"
          },
          {
            "id": 358,
            "division_name": "barisal",
            "district_name": "pirojpur",
            "name": "Mathbaria",
            "name_bn": "মঠবাড়িয়া"
          },
          {
            "id": 359,
            "division_name": "barisal",
            "district_name": "pirojpur",
            "name": "Nazirpur",
            "name_bn": "নাজিরপুর"
          },
          {
            "id": 360,
            "division_name": "barisal",
            "district_name": "pirojpur",
            "name": "Nesarabad",
            "name_bn": "নেছারাবাদ"
          },
          {
            "id": 361,
            "division_name": "barisal",
            "district_name": "pirojpur",
            "name": "Indurkani",
            "name_bn": "ইন্দুরকানী"
          }
        ]
      }
    ]
  },
  {
    "id": 6,
    "name": "Sylhet",
    "name_bn": "সিলেট",
    "districts": [
      {
        "id": 49,
        "division_name": "sylhet",
        "name": "Sylhet",
        "name_bn": "সিলেট",
        "subdistricts": [
          {
            "id": 362,
            "division_name": "sylhet",
            "district_name": "sylhet",
            "name": "Sylhet Sadar",
            "name_bn": "সিলেট সদর"
          },
          {
            "id": 363,
            "division_name": "sylhet",
            "district_name": "sylhet",
            "name": "Balaganj",
            "name_bn": "বালাগঞ্জ"
          },
          {
            "id": 364,
            "division_name": "sylhet",
            "district_name": "sylhet",
            "name": "Beanibazar",
            "name_bn": "বিয়ানীবাজার"
          },
          {
            "id": 365,
            "division_name": "sylhet",
            "district_name": "sylhet",
            "name": "Bishwanath",
            "name_bn": "বিশ্বনাথ"
          },
          {
            "id": 366,
            "division_name": "sylhet",
            "district_name": "sylhet",
            "name": "Companiganj",
            "name_bn": "কোম্পানীগঞ্জ"
          },
          {
            "id": 367,
            "division_name": "sylhet",
            "district_name": "sylhet",
            "name": "Dakshin Surma",
            "name_bn": "দক্ষিণ সুরমা"
          },
          {
            "id": 368,
            "division_name": "sylhet",
            "district_name": "sylhet",
            "name": "Fenchuganj",
            "name_bn": "ফেঞ্চুগঞ্জ"
          },
          {
            "id": 369,
            "division_name": "sylhet",
            "district_name": "sylhet",
            "name": "Golapganj",
            "name_bn": "গোলাপগঞ্জ"
          },
          {
            "id": 370,
            "division_name": "sylhet",
            "district_name": "sylhet",
            "name": "Gowainghat",
            "name_bn": "গোয়াইনঘাট"
          },
          {
            "id": 371,
            "division_name": "sylhet",
            "district_name": "sylhet",
            "name": "Jaintiapur",
            "name_bn": "জৈন্তাপুর"
          },
          {
            "id": 372,
            "division_name": "sylhet",
            "district_name": "sylhet",
            "name": "Kanaighat",
            "name_bn": "কানাইঘাট"
          },
          {
            "id": 373,
            "division_name": "sylhet",
            "district_name": "sylhet",
            "name": "Osmaninagar",
            "name_bn": "ওসমানীনগর"
          },
          {
            "id": 374,
            "division_name": "sylhet",
            "district_name": "sylhet",
            "name": "Zakiganj",
            "name_bn": "জাকিগঞ্জ"
          }
        ]
      },
      {
        "id": 50,
        "division_name": "sylhet",
        "name": "Moulvibazar",
        "name_bn": "মৌলভীবাজার",
        "subdistricts": [
          {
            "id": 375,
            "division_name": "sylhet",
            "district_name": "moulvibazar",
            "name": "Moulvibazar Sadar",
            "name_bn": "মৌলভীবাজার সদর"
          },
          {
            "id": 376,
            "division_name": "sylhet",
            "district_name": "moulvibazar",
            "name": "Barlekha",
            "name_bn": "বড়লেখা"
          },
          {
            "id": 377,
            "division_name": "sylhet",
            "district_name": "moulvibazar",
            "name": "Juri",
            "name_bn": "জুড়ী"
          },
          {
            "id": 378,
            "division_name": "sylhet",
            "district_name": "moulvibazar",
            "name": "Kamalganj",
            "name_bn": "কমলগঞ্জ"
          },
          {
            "id": 379,
            "division_name": "sylhet",
            "district_name": "moulvibazar",
            "name": "Kulaura",
            "name_bn": "কুলাউড়া"
          },
          {
            "id": 380,
            "division_name": "sylhet",
            "district_name": "moulvibazar",
            "name": "Rajnagar",
            "name_bn": "রাজনগর"
          },
          {
            "id": 381,
            "division_name": "sylhet",
            "district_name": "moulvibazar",
            "name": "Sreemangal",
            "name_bn": "শ্রীমঙ্গল"
          }
        ]
      },
      {
        "id": 51,
        "division_name": "sylhet",
        "name": "Habiganj",
        "name_bn": "হবিগঞ্জ",
        "subdistricts": [
          {
            "id": 382,
            "division_name": "sylhet",
            "district_name": "habiganj",
            "name": "Habiganj Sadar",
            "name_bn": "হবিগঞ্জ সদর"
          },
          {
            "id": 383,
            "division_name": "sylhet",
            "district_name": "habiganj",
            "name": "Ajmiriganj",
            "name_bn": "আজমিরীগঞ্জ"
          },
          {
            "id": 384,
            "division_name": "sylhet",
            "district_name": "habiganj",
            "name": "Bahubal",
            "name_bn": "বাহুবল"
          },
          {
            "id": 385,
            "division_name": "sylhet",
            "district_name": "habiganj",
            "name": "Baniachong",
            "name_bn": "বানিয়াচং"
          },
          {
            "id": 386,
            "division_name": "sylhet",
            "district_name": "habiganj",
            "name": "Chunarughat",
            "name_bn": "চুনারুঘাট"
          },
          {
            "id": 387,
            "division_name": "sylhet",
            "district_name": "habiganj",
            "name": "Lakhai",
            "name_bn": "লাখাই"
          },
          {
            "id": 388,
            "division_name": "sylhet",
            "district_name": "habiganj",
            "name": "Madhabpur",
            "name_bn": "মাধবপুর"
          },
          {
            "id": 389,
            "division_name": "sylhet",
            "district_name": "habiganj",
            "name": "Nabiganj",
            "name_bn": "নবীগঞ্জ"
          },
          {
            "id": 390,
            "division_name": "sylhet",
            "district_name": "habiganj",
            "name": "Shaistaganj",
            "name_bn": "শায়েস্তাগঞ্জ"
          }
        ]
      },
      {
        "id": 52,
        "division_name": "sylhet",
        "name": "Sunamganj",
        "name_bn": "সুনামগঞ্জ",
        "subdistricts": [
          {
            "id": 391,
            "division_name": "sylhet",
            "district_name": "sunamganj",
            "name": "Sunamganj Sadar",
            "name_bn": "সুনামগঞ্জ সদর"
          },
          {
            "id": 392,
            "division_name": "sylhet",
            "district_name": "sunamganj",
            "name": "Bishwambarpur",
            "name_bn": "বিশ্বম্ভরপুর"
          },
          {
            "id": 393,
            "division_name": "sylhet",
            "district_name": "sunamganj",
            "name": "Chhatak",
            "name_bn": "ছাতক"
          },
          {
            "id": 394,
            "division_name": "sylhet",
            "district_name": "sunamganj",
            "name": "Derai",
            "name_bn": "দিরাই"
          },
          {
            "id": 395,
            "division_name": "sylhet",
            "district_name": "sunamganj",
            "name": "Dharampasha",
            "name_bn": "ধর্মপাশা"
          },
          {
            "id": 396,
            "division_name": "sylhet",
            "district_name": "sunamganj",
            "name": "Dowarabazar",
            "name_bn": "দোয়ারাবাজার"
          },
          {
            "id": 397,
            "division_name": "sylhet",
            "district_name": "sunamganj",
            "name": "Jagannathpur",
            "name_bn": "জগন্নাথপুর"
          },
          {
            "id": 398,
            "division_name": "sylhet",
            "district_name": "sunamganj",
            "name": "Jamalganj",
            "name_bn": "জামালগঞ্জ"
          },
          {
            "id": 399,
            "division_name": "sylhet",
            "district_name": "sunamganj",
            "name": "Shalla",
            "name_bn": "শাল্লা"
          },
          {
            "id": 400,
            "division_name": "sylhet",
            "district_name": "sunamganj",
            "name": "South Sunamganj",
            "name_bn": "দক্ষিণ সুনামগঞ্জ"
          },
          {
            "id": 401,
            "division_name": "sylhet",
            "district_name": "sunamganj",
            "name": "Tahirpur",
            "name_bn": "তাহিরপুর"
          },
          {
            "id": 402,
            "division_name": "sylhet",
            "district_name": "sunamganj",
            "name": "Madhyanagar",
            "name_bn": "মধ্যনগর"
          }
        ]
      }
    ]
  },
  {
    "id": 7,
    "name": "Rangpur",
    "name_bn": "রংপুর",
    "districts": [
      {
        "id": 53,
        "division_name": "rangpur",
        "name": "Rangpur",
        "name_bn": "রংপুর",
        "subdistricts": [
          {
            "id": 403,
            "division_name": "rangpur",
            "district_name": "rangpur",
            "name": "Rangpur Sadar",
            "name_bn": "রংপুর সদর"
          },
          {
            "id": 404,
            "division_name": "rangpur",
            "district_name": "rangpur",
            "name": "Badarganj",
            "name_bn": "বদরগঞ্জ"
          },
          {
            "id": 405,
            "division_name": "rangpur",
            "district_name": "rangpur",
            "name": "Gangachara",
            "name_bn": "গঙ্গাচড়া"
          },
          {
            "id": 406,
            "division_name": "rangpur",
            "district_name": "rangpur",
            "name": "Kaunia",
            "name_bn": "কাউনিয়া"
          },
          {
            "id": 407,
            "division_name": "rangpur",
            "district_name": "rangpur",
            "name": "Mithapukur",
            "name_bn": "মিঠাপুকুর"
          },
          {
            "id": 408,
            "division_name": "rangpur",
            "district_name": "rangpur",
            "name": "Pirgachha",
            "name_bn": "পীরগাছা"
          },
          {
            "id": 409,
            "division_name": "rangpur",
            "district_name": "rangpur",
            "name": "Pirganj",
            "name_bn": "পীরগঞ্জ"
          },
          {
            "id": 410,
            "division_name": "rangpur",
            "district_name": "rangpur",
            "name": "Taraganj",
            "name_bn": "তারাগঞ্জ"
          }
        ]
      },
      {
        "id": 54,
        "division_name": "rangpur",
        "name": "Dinajpur",
        "name_bn": "দিনাজপুর",
        "subdistricts": [
          {
            "id": 411,
            "division_name": "rangpur",
            "district_name": "dinajpur",
            "name": "Dinajpur Sadar",
            "name_bn": "দিনাজপুর সদর"
          },
          {
            "id": 412,
            "division_name": "rangpur",
            "district_name": "dinajpur",
            "name": "Birampur",
            "name_bn": "বিরামপুর"
          },
          {
            "id": 413,
            "division_name": "rangpur",
            "district_name": "dinajpur",
            "name": "Birganj",
            "name_bn": "বীরগঞ্জ"
          },
          {
            "id": 414,
            "division_name": "rangpur",
            "district_name": "dinajpur",
            "name": "Biral",
            "name_bn": "বিরল"
          },
          {
            "id": 415,
            "division_name": "rangpur",
            "district_name": "dinajpur",
            "name": "Bochaganj",
            "name_bn": "বোচাগঞ্জ"
          },
          {
            "id": 416,
            "division_name": "rangpur",
            "district_name": "dinajpur",
            "name": "Chirirbandar",
            "name_bn": "ছিরিরবন্দর"
          },
          {
            "id": 417,
            "division_name": "rangpur",
            "district_name": "dinajpur",
            "name": "Fulbari",
            "name_bn": "ফুলবাড়ী"
          },
          {
            "id": 418,
            "division_name": "rangpur",
            "district_name": "dinajpur",
            "name": "Ghoraghat",
            "name_bn": "ঘোড়াঘাট"
          },
          {
            "id": 419,
            "division_name": "rangpur",
            "district_name": "dinajpur",
            "name": "Hakimpur",
            "name_bn": "হাকিমপুর"
          },
          {
            "id": 420,
            "division_name": "rangpur",
            "district_name": "dinajpur",
            "name": "Kaharole",
            "name_bn": "কাহারোল"
          },
          {
            "id": 421,
            "division_name": "rangpur",
            "district_name": "dinajpur",
            "name": "Khansama",
            "name_bn": "খানসামা"
          },
          {
            "id": 422,
            "division_name": "rangpur",
            "district_name": "dinajpur",
            "name": "Nawabganj",
            "name_bn": "নবাবগঞ্জ"
          },
          {
            "id": 423,
            "division_name": "rangpur",
            "district_name": "dinajpur",
            "name": "Parbatipur",
            "name_bn": "পার্বতীপুর"
          }
        ]
      },
      {
        "id": 55,
        "division_name": "rangpur",
        "name": "Gaibandha",
        "name_bn": "গাইবান্ধা",
        "subdistricts": [
          {
            "id": 424,
            "division_name": "rangpur",
            "district_name": "gaibandha",
            "name": "Gaibandha Sadar",
            "name_bn": "গাইবান্ধা সদর"
          },
          {
            "id": 425,
            "division_name": "rangpur",
            "district_name": "gaibandha",
            "name": "Fulchhari",
            "name_bn": "ফুলছড়ি"
          },
          {
            "id": 426,
            "division_name": "rangpur",
            "district_name": "gaibandha",
            "name": "Gobindaganj",
            "name_bn": "গোবিন্দগঞ্জ"
          },
          {
            "id": 427,
            "division_name": "rangpur",
            "district_name": "gaibandha",
            "name": "Palashbari",
            "name_bn": "পলাশবাড়ী"
          },
          {
            "id": 428,
            "division_name": "rangpur",
            "district_name": "gaibandha",
            "name": "Sadullapur",
            "name_bn": "সাদুল্লাপুর"
          },
          {
            "id": 429,
            "division_name": "rangpur",
            "district_name": "gaibandha",
            "name": "Saghata",
            "name_bn": "সাঘাটা"
          },
          {
            "id": 430,
            "division_name": "rangpur",
            "district_name": "gaibandha",
            "name": "Sundarganj",
            "name_bn": "সুন্দরগঞ্জ"
          }
        ]
      },
      {
        "id": 56,
        "division_name": "rangpur",
        "name": "Kurigram",
        "name_bn": "কুড়িগ্রাম",
        "subdistricts": [
          {
            "id": 431,
            "division_name": "rangpur",
            "district_name": "kurigram",
            "name": "Kurigram Sadar",
            "name_bn": "কুড়িগ্রাম সদর"
          },
          {
            "id": 432,
            "division_name": "rangpur",
            "district_name": "kurigram",
            "name": "Bhurungamari",
            "name_bn": "ভুরুঙ্গামারী"
          },
          {
            "id": 433,
            "division_name": "rangpur",
            "district_name": "kurigram",
            "name": "Chilmari",
            "name_bn": "চিলমারী"
          },
          {
            "id": 434,
            "division_name": "rangpur",
            "district_name": "kurigram",
            "name": "Phulbari",
            "name_bn": "ফুলবাড়ী"
          },
          {
            "id": 435,
            "division_name": "rangpur",
            "district_name": "kurigram",
            "name": "Nageshwari",
            "name_bn": "নাগেশ্বরী"
          },
          {
            "id": 436,
            "division_name": "rangpur",
            "district_name": "kurigram",
            "name": "Rajarhat",
            "name_bn": "রাজারহাট"
          },
          {
            "id": 437,
            "division_name": "rangpur",
            "district_name": "kurigram",
            "name": "Raomari",
            "name_bn": "রৌমারী"
          },
          {
            "id": 438,
            "division_name": "rangpur",
            "district_name": "kurigram",
            "name": "Char Rajibpur",
            "name_bn": "চর রাজিবপুর"
          },
          {
            "id": 439,
            "division_name": "rangpur",
            "district_name": "kurigram",
            "name": "Ulipur",
            "name_bn": "উলিপুর"
          }
        ]
      },
      {
        "id": 57,
        "division_name": "rangpur",
        "name": "Lalmonirhat",
        "name_bn": "লালমনিরহাট",
        "subdistricts": [
          {
            "id": 440,
            "division_name": "rangpur",
            "district_name": "lalmonirhat",
            "name": "Lalmonirhat Sadar",
            "name_bn": "লালমনিরহাট সদর"
          },
          {
            "id": 441,
            "division_name": "rangpur",
            "district_name": "lalmonirhat",
            "name": "Aditmari",
            "name_bn": "আদিতমারী"
          },
          {
            "id": 442,
            "division_name": "rangpur",
            "district_name": "lalmonirhat",
            "name": "Hatibandha",
            "name_bn": "হাতিবান্ধা"
          },
          {
            "id": 443,
            "division_name": "rangpur",
            "district_name": "lalmonirhat",
            "name": "Kaliganj",
            "name_bn": "কালীগঞ্জ"
          },
          {
            "id": 444,
            "division_name": "rangpur",
            "district_name": "lalmonirhat",
            "name": "Patgram",
            "name_bn": "পাটগ্রাম"
          }
        ]
      },
      {
        "id": 58,
        "division_name": "rangpur",
        "name": "Nilphamari",
        "name_bn": "নীলফামারী",
        "subdistricts": [
          {
            "id": 445,
            "division_name": "rangpur",
            "district_name": "nilphamari",
            "name": "Nilphamari Sadar",
            "name_bn": "নীলফামারী সদর"
          },
          {
            "id": 446,
            "division_name": "rangpur",
            "district_name": "nilphamari",
            "name": "Dimla",
            "name_bn": "ডিমলা"
          },
          {
            "id": 447,
            "division_name": "rangpur",
            "district_name": "nilphamari",
            "name": "Domar",
            "name_bn": "ডোমার"
          },
          {
            "id": 448,
            "division_name": "rangpur",
            "district_name": "nilphamari",
            "name": "Jaldhaka",
            "name_bn": "জলঢাকা"
          },
          {
            "id": 449,
            "division_name": "rangpur",
            "district_name": "nilphamari",
            "name": "Kishoreganj",
            "name_bn": "কিশোরগঞ্জ"
          },
          {
            "id": 450,
            "division_name": "rangpur",
            "district_name": "nilphamari",
            "name": "Saidpur",
            "name_bn": "সৈয়দপুর"
          }
        ]
      },
      {
        "id": 59,
        "division_name": "rangpur",
        "name": "Panchagarh",
        "name_bn": "পঞ্চগড়",
        "subdistricts": [
          {
            "id": 451,
            "division_name": "rangpur",
            "district_name": "panchagarh",
            "name": "Panchagarh Sadar",
            "name_bn": "পঞ্চগড় সদর"
          },
          {
            "id": 452,
            "division_name": "rangpur",
            "district_name": "panchagarh",
            "name": "Atwari",
            "name_bn": "আটোয়ারী"
          },
          {
            "id": 453,
            "division_name": "rangpur",
            "district_name": "panchagarh",
            "name": "Boda",
            "name_bn": "বোদা"
          },
          {
            "id": 454,
            "division_name": "rangpur",
            "district_name": "panchagarh",
            "name": "Debiganj",
            "name_bn": "দেবীগঞ্জ"
          },
          {
            "id": 455,
            "division_name": "rangpur",
            "district_name": "panchagarh",
            "name": "Tetulia",
            "name_bn": "তেতুলিয়া"
          }
        ]
      },
      {
        "id": 60,
        "division_name": "rangpur",
        "name": "Thakurgaon",
        "name_bn": "ঠাকুরগাঁও",
        "subdistricts": [
          {
            "id": 456,
            "division_name": "rangpur",
            "district_name": "thakurgaon",
            "name": "Thakurgaon Sadar",
            "name_bn": "ঠাকুরগাঁও সদর"
          },
          {
            "id": 457,
            "division_name": "rangpur",
            "district_name": "thakurgaon",
            "name": "Baliadangi",
            "name_bn": "বালিয়াডাঙ্গী"
          },
          {
            "id": 458,
            "division_name": "rangpur",
            "district_name": "thakurgaon",
            "name": "Haripur",
            "name_bn": "হরিপুর"
          },
          {
            "id": 459,
            "division_name": "rangpur",
            "district_name": "thakurgaon",
            "name": "Pirganj",
            "name_bn": "পীরগঞ্জ"
          },
          {
            "id": 460,
            "division_name": "rangpur",
            "district_name": "thakurgaon",
            "name": "Ranisankail",
            "name_bn": "রাণীশঙ্কৈল"
          }
        ]
      }
    ]
  },
  {
    "id": 8,
    "name": "Mymensingh",
    "name_bn": "ময়মনসিংহ",
    "districts": [
      {
        "id": 61,
        "division_name": "mymensingh",
        "name": "Mymensingh",
        "name_bn": "ময়মনসিংহ",
        "subdistricts": [
          {
            "id": 461,
            "division_name": "mymensingh",
            "district_name": "mymensingh",
            "name": "Mymensingh Sadar",
            "name_bn": "ময়মনসিংহ সদর"
          },
          {
            "id": 462,
            "division_name": "mymensingh",
            "district_name": "mymensingh",
            "name": "Bhaluka",
            "name_bn": "ভালুকা"
          },
          {
            "id": 463,
            "division_name": "mymensingh",
            "district_name": "mymensingh",
            "name": "Dhobaura",
            "name_bn": "ধবাউড়া"
          },
          {
            "id": 464,
            "division_name": "mymensingh",
            "district_name": "mymensingh",
            "name": "Fulbaria",
            "name_bn": "ফুলবাড়িয়া"
          },
          {
            "id": 465,
            "division_name": "mymensingh",
            "district_name": "mymensingh",
            "name": "Gafargaon",
            "name_bn": "গফরগাঁও"
          },
          {
            "id": 466,
            "division_name": "mymensingh",
            "district_name": "mymensingh",
            "name": "Gauripur",
            "name_bn": "গৌরীপুর"
          },
          {
            "id": 467,
            "division_name": "mymensingh",
            "district_name": "mymensingh",
            "name": "Haluaghat",
            "name_bn": "হালুয়াঘাট"
          },
          {
            "id": 468,
            "division_name": "mymensingh",
            "district_name": "mymensingh",
            "name": "Ishwarganj",
            "name_bn": "ঈশ্বরগঞ্জ"
          },
          {
            "id": 469,
            "division_name": "mymensingh",
            "district_name": "mymensingh",
            "name": "Muktagachha",
            "name_bn": "মুক্তাগাছা"
          },
          {
            "id": 470,
            "division_name": "mymensingh",
            "district_name": "mymensingh",
            "name": "Nandail",
            "name_bn": "নান্দাইল"
          },
          {
            "id": 471,
            "division_name": "mymensingh",
            "district_name": "mymensingh",
            "name": "Phulpur",
            "name_bn": "ফুলপুর"
          },
          {
            "id": 472,
            "division_name": "mymensingh",
            "district_name": "mymensingh",
            "name": "Tarakanda",
            "name_bn": "তারাকান্দা"
          },
          {
            "id": 473,
            "division_name": "mymensingh",
            "district_name": "mymensingh",
            "name": "Trishal",
            "name_bn": "ত্রিশাল"
          }
        ]
      },
      {
        "id": 62,
        "division_name": "mymensingh",
        "name": "Jamalpur",
        "name_bn": "জামালপুর",
        "subdistricts": [
          {
            "id": 474,
            "division_name": "mymensingh",
            "district_name": "jamalpur",
            "name": "Jamalpur Sadar",
            "name_bn": "জামালপুর সদর"
          },
          {
            "id": 475,
            "division_name": "mymensingh",
            "district_name": "jamalpur",
            "name": "Baksiganj",
            "name_bn": "বকশীগঞ্জ"
          },
          {
            "id": 476,
            "division_name": "mymensingh",
            "district_name": "jamalpur",
            "name": "Dewanganj",
            "name_bn": "দেওয়ানগঞ্জ"
          },
          {
            "id": 477,
            "division_name": "mymensingh",
            "district_name": "jamalpur",
            "name": "Islampur",
            "name_bn": "ইসলামপুর"
          },
          {
            "id": 478,
            "division_name": "mymensingh",
            "district_name": "jamalpur",
            "name": "Madarganj",
            "name_bn": "মাদারগঞ্জ"
          },
          {
            "id": 479,
            "division_name": "mymensingh",
            "district_name": "jamalpur",
            "name": "Melandaha",
            "name_bn": "মেলান্দহ"
          },
          {
            "id": 480,
            "division_name": "mymensingh",
            "district_name": "jamalpur",
            "name": "Sarishabari",
            "name_bn": "সরিষাবাড়ী"
          }
        ]
      },
      {
        "id": 63,
        "division_name": "mymensingh",
        "name": "Netrokona",
        "name_bn": "নেত্রকোণা",
        "subdistricts": [
          {
            "id": 481,
            "division_name": "mymensingh",
            "district_name": "netrokona",
            "name": "Netrokona Sadar",
            "name_bn": "নেত্রকোণা সদর"
          },
          {
            "id": 482,
            "division_name": "mymensingh",
            "district_name": "netrokona",
            "name": "Atpara",
            "name_bn": "আটপাড়া"
          },
          {
            "id": 483,
            "division_name": "mymensingh",
            "district_name": "netrokona",
            "name": "Barhatta",
            "name_bn": "বারহাট্টা"
          },
          {
            "id": 484,
            "division_name": "mymensingh",
            "district_name": "netrokona",
            "name": "Durgapur",
            "name_bn": "দুর্গাপুর"
          },
          {
            "id": 485,
            "division_name": "mymensingh",
            "district_name": "netrokona",
            "name": "Kalmakanda",
            "name_bn": "কলমাকান্দা"
          },
          {
            "id": 486,
            "division_name": "mymensingh",
            "district_name": "netrokona",
            "name": "Kendua",
            "name_bn": "কেন্দুয়া"
          },
          {
            "id": 487,
            "division_name": "mymensingh",
            "district_name": "netrokona",
            "name": "Madan",
            "name_bn": "মদন"
          },
          {
            "id": 488,
            "division_name": "mymensingh",
            "district_name": "netrokona",
            "name": "Mohanganj",
            "name_bn": "মোহনগঞ্জ"
          },
          {
            "id": 489,
            "division_name": "mymensingh",
            "district_name": "netrokona",
            "name": "Purbadhala",
            "name_bn": "পূর্বধলা"
          },
          {
            "id": 490,
            "division_name": "mymensingh",
            "district_name": "netrokona",
            "name": "Khaliajuri",
            "name_bn": "খালিয়াজুরি"
          }
        ]
      },
      {
        "id": 64,
        "division_name": "mymensingh",
        "name": "Sherpur",
        "name_bn": "শেরপুর",
        "subdistricts": [
          {
            "id": 491,
            "division_name": "mymensingh",
            "district_name": "sherpur",
            "name": "Sherpur Sadar",
            "name_bn": "শেরপুর সদর"
          },
          {
            "id": 492,
            "division_name": "mymensingh",
            "district_name": "sherpur",
            "name": "Jhenaigati",
            "name_bn": "ঝিনাইগাতী"
          },
          {
            "id": 493,
            "division_name": "mymensingh",
            "district_name": "sherpur",
            "name": "Nakla",
            "name_bn": "নাকলা"
          },
          {
            "id": 494,
            "division_name": "mymensingh",
            "district_name": "sherpur",
            "name": "Nalitabari",
            "name_bn": "নালিতাবাড়ী"
          },
          {
            "id": 495,
            "division_name": "mymensingh",
            "district_name": "sherpur",
            "name": "Sreebardi",
            "name_bn": "শ্রীবরদী"
          }
        ]
      }
    ]
  }
]
